STARLINK-31796          
1 59646U 24082R   26068.17419417 -.00000721  00000+0 -16676-4 0  9993
2 59646  43.0021 142.6731 0001059 228.3655 131.7106 15.27574893104894
FLOCK 4G-27             
1 62641U 25009AJ  26068.75406453  .00012587  00000+0  47455-3 0  9991
2 62641  97.3976 150.8631 0000756 322.4974  37.6212 15.27199247 63710
