[{"OBJECT_NAME":"STARLINK-31796","OBJECT_ID":"2024-082R","EPOCH":"2026-03-09T04:10:50.376288","MEAN_MOTION":15.27574893,"ECCENTRICITY":0.0001059,"INCLINATION":43.0021,"RA_OF_ASC_NODE":142.6731,"ARG_OF_PERICENTER":228.3655,"MEAN_ANOMALY":131.7106,"EPHEMERIS_TYPE":0,"CLASSIFICATION_TYPE":"U","NORAD_CAT_ID":59646,"ELEMENT_SET_NO":999,"REV_AT_EPOCH":10489,"BSTAR":-1.66762e-5,"MEAN_MOTION_DOT":-7.21e-6,"MEAN_MOTION_DDOT":0},{"OBJECT_NAME":"FLOCK 4G-27","OBJECT_ID":"2025-009AJ","EPOCH":"2026-03-09T18:05:51.175392","MEAN_MOTION":15.27199247,"ECCENTRICITY":7.564e-5,"INCLINATION":97.3976,"RA_OF_ASC_NODE":150.8631,"ARG_OF_PERICENTER":322.4974,"MEAN_ANOMALY":37.6212,"EPHEMERIS_TYPE":0,"CLASSIFICATION_TYPE":"U","NORAD_CAT_ID":62641,"ELEMENT_SET_NO":999,"REV_AT_EPOCH":6371,"BSTAR":0.00047455305,"MEAN_MOTION_DOT":0.00012587,"MEAN_MOTION_DDOT":0}]
